{
  "type": "FeatureCollection",
  "features": [
    {
      "type": "Feature",
      "properties": {
        "norad_id": 19071,
        "name": "OSCAR 32",
        "group": "nnss",
        "lat": 47.783869145204235,
        "lon": -163.36076790244354,
        "alt_km": 1069.8478006653422,
        "timestamp": "2025-12-04T23:34:05.991198+00:00",
        "meta_object_name": "OSCAR 32",
        "meta_object_id": "1988-033B",
        "meta_epoch": "2025-12-04T16:15:19.253088",
        "meta_mean_motion": 13.27952429,
        "meta_eccentricity": 0.0187676,
        "meta_inclination": 90.3226,
        "meta_ra_of_asc_node": 16.2739,
        "meta_arg_of_pericenter": 189.2128,
        "meta_mean_anomaly": 288.8586,
        "meta_ephemeris_type": 0,
        "meta_classification_type": "U",
        "meta_norad_cat_id": 19071,
        "meta_element_set_no": 999,
        "meta_rev_at_epoch": 82158,
        "meta_bstar": 0.00024792,
        "meta_mean_motion_dot": 1.32e-06,
        "meta_mean_motion_ddot": 0,
        "tle_line1": "1 19071U 88033B   25338.67730617  .00000132  00000+0  24792-3 0  9990",
        "tle_line2": "2 19071  90.3226  16.2739 0187676 189.2128 288.8586 13.27952429821589"
      },
      "geometry": {
        "type": "Point",
        "coordinates": [
          -163.36076790244354,
          47.783869145204235
        ]
      }
    },
    {
      "type": "Feature",
      "properties": {
        "norad_id": 19223,
        "name": "NOVA 2",
        "group": "nnss",
        "lat": 68.5303058333756,
        "lon": -101.75037430781826,
        "alt_km": 1160.2621977337458,
        "timestamp": "2025-12-04T23:34:05.991208+00:00",
        "meta_object_name": "NOVA 2",
        "meta_object_id": "1988-052A",
        "meta_epoch": "2025-12-04T16:24:02.924352",
        "meta_mean_motion": 13.22934571,
        "meta_eccentricity": 0.0031229,
        "meta_inclination": 89.9873,
        "meta_ra_of_asc_node": 78.2823,
        "meta_arg_of_pericenter": 38.5852,
        "meta_mean_anomaly": 91.0032,
        "meta_ephemeris_type": 0,
        "meta_classification_type": "U",
        "meta_norad_cat_id": 19223,
        "meta_element_set_no": 999,
        "meta_rev_at_epoch": 80841,
        "meta_bstar": 0.00019797,
        "meta_mean_motion_dot": 9.2e-07,
        "meta_mean_motion_ddot": 0,
        "tle_line1": "1 19223U 88052A   25338.68336718  .00000092  00000+0  19797-3 0  9999",
        "tle_line2": "2 19223  89.9873  78.2823 0031229  38.5852  91.0032 13.22934571808414"
      },
      "geometry": {
        "type": "Point",
        "coordinates": [
          -101.75037430781826,
          68.5303058333756
        ]
      }
    },
    {
      "type": "Feature",
      "properties": {
        "norad_id": 19419,
        "name": "OSCAR 25",
        "group": "nnss",
        "lat": -0.8159549297817292,
        "lon": 20.218963670688648,
        "alt_km": 1103.0237161056348,
        "timestamp": "2025-12-04T23:34:05.991219+00:00",
        "meta_object_name": "OSCAR 25",
        "meta_object_id": "1988-074A",
        "meta_epoch": "2025-12-04T17:02:05.685792",
        "meta_mean_motion": 13.42621101,
        "meta_eccentricity": 0.0094238,
        "meta_inclination": 90.0354,
        "meta_ra_of_asc_node": 20.2175,
        "meta_arg_of_pericenter": 269.1747,
        "meta_mean_anomaly": 214.0355,
        "meta_ephemeris_type": 0,
        "meta_classification_type": "U",
        "meta_norad_cat_id": 19419,
        "meta_element_set_no": 999,
        "meta_rev_at_epoch": 82532,
        "meta_bstar": 0.00029455,
        "meta_mean_motion_dot": 1.79e-06,
        "meta_mean_motion_ddot": 0,
        "tle_line1": "1 19419U 88074A   25338.70978803  .00000179  00000+0  29455-3 0  9998",
        "tle_line2": "2 19419  90.0354  20.2175 0094238 269.1747 214.0355 13.42621101825327"
      },
      "geometry": {
        "type": "Point",
        "coordinates": [
          20.218963670688648,
          -0.8159549297817292
        ]
      }
    },
    {
      "type": "Feature",
      "properties": {
        "norad_id": 19420,
        "name": "OSCAR 31",
        "group": "nnss",
        "lat": -62.76584632503406,
        "lon": -159.5050275232349,
        "alt_km": 1041.7927690027682,
        "timestamp": "2025-12-04T23:34:05.991229+00:00",
        "meta_object_name": "OSCAR 31",
        "meta_object_id": "1988-074B",
        "meta_epoch": "2025-12-04T15:46:49.752192",
        "meta_mean_motion": 13.42582718,
        "meta_eccentricity": 0.0092483,
        "meta_inclination": 90.0371,
        "meta_ra_of_asc_node": 20.5659,
        "meta_arg_of_pericenter": 263.4336,
        "meta_mean_anomaly": 212.1839,
        "meta_ephemeris_type": 0,
        "meta_classification_type": "U",
        "meta_norad_cat_id": 19420,
        "meta_element_set_no": 999,
        "meta_rev_at_epoch": 82542,
        "meta_bstar": 0.00025453,
        "meta_mean_motion_dot": 1.56e-06,
        "meta_mean_motion_ddot": 0,
        "tle_line1": "1 19420U 88074B   25338.65752028  .00000156  00000+0  25453-3 0  9992",
        "tle_line2": "2 19420  90.0371  20.5659 0092483 263.4336 212.1839 13.42582718825426"
      },
      "geometry": {
        "type": "Point",
        "coordinates": [
          -159.5050275232349,
          -62.76584632503406
        ]
      }
    }
  ]
}